IRIDIUM 159             
1 43578U 18061K   25017.82619831  .00000554  00000+0  19084-3 0  9994
2 43578  86.3953 272.0480 0002119  78.4541 281.6893 14.34221266339517
IRIDIUM 180             
1 43922U 19002A   25017.89546455  .00000165  00000+0  51735-4 0  9999
2 43922  86.3971 208.9051 0001897  91.7774 268.3639 14.34217820315133
IRIDIUM 176             
1 43923U 19002B   25017.89585437  .00000674  00000+0  10304-3 0  9994
2 43923  86.6099 208.9095 0001761  56.6687 303.4698 14.72241560323437
IRIDIUM 168             
1 43924U 19002C   25017.88910696  .00000134  00000+0  40908-4 0  9998
2 43924  86.3973 208.9704 0001994  86.6351 273.5073 14.34219288315112
IRIDIUM 173             
1 43925U 19002D   25017.94619108  .00000101  00000+0  28927-4 0  9991
2 43925  86.3970 208.8568 0001917  92.4197 267.7219 14.34219026315101
IRIDIUM 169             
1 43926U 19002E   25017.84400483  .00000590  00000+0  18633-3 0  9999
2 43926  86.4203 240.5050 0001246 143.7413 216.3870 14.38613058316131
IRIDIUM 172             
1 43927U 19002F   25017.93984658 -.00000010  00000+0 -10534-4 0  9993
2 43927  86.3976 208.8657 0001867  87.2197 272.9213 14.34217451315117
IRIDIUM 175             
1 43928U 19002G   25017.89049645  .00002308  00000+0  36197-3 0  9999
2 43928  86.1540 169.9860 0002652 118.8572 241.2911 14.72246111323421
